ONEWEB-0560             
1 55145U 23004F   24287.43525507  .00000501  00000+0  12383-2 0  9997
2 55145  87.9050  97.2396 0002221  88.3770 271.7616 13.18686269 89082
ONEWEB-0565             
1 55146U 23004G   24287.42893870  .00000159  00000+0  36931-3 0  9993
2 55146  87.9050  97.3132 0001971  71.1436 288.9910 13.18687491 89076
ONEWEB-0567             
1 55147U 23004H   24287.42261388  .00000178  00000+0  41762-3 0  9996
2 55147  87.9051  97.2685 0002093  79.9136 280.2232 13.18689456 89074
ONEWEB-0569             
1 55148U 23004J   24287.45344683 -.00000022  00000+0 -95391-4 0  9998
2 55148  87.8869  81.8983 0002698  81.6777 278.4658 13.13472385 89878
ONEWEB-0570             
1 55149U 23004K   24287.48584255  .00000147  00000+0  34053-3 0  9996
2 55149  87.9053  97.2552 0001320  64.2679 295.8589 13.18688437 89077
ONEWEB-0571             
1 55150U 23004L   24287.47952239  .00000117  00000+0  26327-3 0  9990
2 55150  87.9054  97.2633 0002305  65.2376 294.8996 13.18688557 89084
ONEWEB-0572             
1 55151U 23004M   24287.47381244  .00000094  00000+0  20809-3 0  9996
2 55151  87.9085 127.7263 0001649  75.3461 284.7853 13.17649644 86927
ONEWEB-0573             
1 55152U 23004N   24287.47319892  .00000113  00000+0  25494-3 0  9994
2 55152  87.9048  97.2799 0002014  61.0139 299.1195 13.18688371 89072
